#aV2023 10 29  0  0  0.00000000     288 DD+AD WGS84 FIT  NGA
## 2286      0.00000000   300.00000000 60246 0.0000000000000
+   32     1  2  3  4  5  6  7  8  9 10 11 12 13 14 15 16 17
+         18 19 20 21 22 23 24 25 26 27 28 29 30 31 32  0  0
+          0  0  0  0  0  0  0  0  0  0  0  0  0  0  0  0  0
+          0  0  0  0  0  0  0  0  0  0  0  0  0  0  0  0  0
+          0  0  0  0  0  0  0  0  0  0  0  0  0  0  0  0  0
++         2  2  2  2  2  2  2  2  2  2  2  2  2  2  2  2  2
++         2  2  2  2  2  2  2  2  2  2  2  2  2  2  2  0  0
++         0  0  0  0  0  0  0  0  0  0  0  0  0  0  0  0  0
++         0  0  0  0  0  0  0  0  0  0  0  0  0  0  0  0  0
++         0  0  0  0  0  0  0  0  0  0  0  0  0  0  0  0  0
%c cc cc ccc ccc cccc cccc cccc cccc ccccc ccccc ccccc ccccc
%c cc cc ccc ccc cccc cccc cccc cccc ccccc ccccc ccccc ccccc
%f  0.0000000  0.000000000  0.00000000000  0.000000000000000
%f  0.0000000  0.000000000  0.00000000000  0.000000000000000
%i    0    0    0    0      0      0      0      0         0
%i    0    0    0    0      0      0      0      0         0
/*      NGA, ST. LOUIS,MO.                                  
/*   EPHEMERIS COMPUTED FROM 2 DAYS OF DATA                 
/*   EPOCHA v8 SMOOTHER                                     
/*   G2139 IERS2010 SATIGS SATAPC                           
*  2023 10 29  6 50  0.00000000
P  1  20458.579223  13014.959281  10886.575567    163.331397                    
V  1   8085.165064  11750.725421 -28024.603332     -0.002289                    
P  2  21323.004307  15230.059869   5425.114991   -536.024316                    
V  2   2897.163442   5950.037187 -30805.023435      0.048597                    
P  3  14187.367703   3890.409757  21963.991783    -49.532494                    
V  3  -8837.333642  26766.727822   1064.551163      0.240597                    
P  4  25185.470463   1718.422982   8469.192615    197.823191                    
V  4 -10151.020427   4181.451762  29237.798250      0.106251                    
P  5  -7995.600689 -17764.106159 -18193.739928   -148.314453                    
V  5   7561.465707 -21504.835532  17942.988517     -0.014544                    
P  6   -364.737162 -19027.309089  18555.967736    519.604267                    
V  6  16123.989037  16971.373302  17875.409957     -0.091477                    
P  7  16319.132810  -3429.125992 -20300.045705     27.760326                    
V  7  17115.461377  20615.430064   9575.081747     -0.100444                    
P  8  19901.332392   7184.712397 -16378.448823   -149.482347                    
V  8 -19569.316800   6349.102594 -20689.724759     -0.019368                    
P  9  25657.085882  -6871.475897  -1369.575446    -18.830653                    
V  9   2238.402384   2462.847524  31559.214569      0.109783                    
P 10 -10833.223591  23646.128591  -4233.590625    -59.233133                    
V 10   -528.626175  -6127.672002 -31811.702887     -0.014983                    
P 11 -10427.470756 -22796.806799   8875.079799   -436.415373                    
V 11   8876.332051   7264.037604  29098.348455     -0.168430                    
P 12 -13284.570195  -7097.871845  21605.346213   -441.095809                    
V 12  10815.730203 -25911.271749  -1768.410725     -0.041619                    
P 13 -10819.932115 -13389.259713 -20484.337329    589.327523                    
V 13  25377.101875  -2381.915059 -11755.385132      0.042001                    
P 14  13532.187463 -21489.681312  -7447.382123    227.742735                    
V 14   -281.339548  10061.859494 -29624.549419      0.109238                    
P 15 -21150.560384  -4897.262126 -15940.891477     91.773822                    
V 15  17443.227011  -8670.727814 -20905.436958      0.037425                    
P 16   2152.943132  21641.898063 -15238.720278   -431.346896                    
V 16  -9526.388727  16551.111621  23073.097511      0.063369                    
P 17  17598.025394 -13143.205987  15457.306328    723.629703                    
V 17  18811.512110  -1075.351403 -22866.106176     -0.002913                    
P 18 -14664.094796   5310.224129 -21513.933536   -463.190179                    
V 18 -17400.496101 -21001.740462   6494.389371     -0.113516                    
P 19   9072.698833 -14589.594351  19961.422488    391.465421                    
V 19  25850.131428  -1266.355252 -12886.672625      0.052020                    
P 20  -1866.543173 -25381.751922  -7880.296854    404.397216                    
V 20   4239.006030  -9504.789506  29257.987609     -0.019450                    
P 21  20606.709255  17478.224360   2088.565824    145.645849                    
V 21     81.135917   2775.032144 -31043.046450     -0.009282                    
P 22  10557.416300 -24539.752009    226.236931     93.996588                    
V 22   2194.455281   1237.860004 -31623.041183     -0.071110                    
P 23 -15415.939007  15031.465001 -15419.522345     90.081289                    
V 23   3958.054357 -19316.110616 -22949.532311      0.060392                    
P 24 -21590.968642 -14728.381542   5455.851051   -358.083706                    
V 24  -3151.067514  -7405.709534 -29860.315982     -0.094351                    
P 25 -16535.369048   7366.713795  19022.915834    474.946816                    
V 25   5968.468663 -24288.277980  14617.170916      0.017351                    
P 26  -2456.710553  25737.814976  -5315.110042    220.256344                    
V 26  -5390.545660   5531.587093  30364.414400     -0.024501                    
P 27   7209.994892  13887.934565 -21760.508845    -62.189008                    
V 27 -26345.931365   5742.133570  -4715.649870     -0.055602                    
P 28  -1113.959870  18286.511373  19207.126951    -34.666148                    
V 28 -17782.278637 -16813.575653  14956.973732     -0.076570                    
P 29 -26251.858338   4213.961915  -1306.828304   -610.210422                    
V 29  -1876.014810  -2087.426998  31919.817475     -0.000727                    
P 30   8647.514205 -13578.798658 -20973.812825   -473.875731                    
V 30  18402.432357  19831.311931  -5484.795470      0.038339                    
P 31   6388.872702  21871.230300  13093.489942   -225.175973                    
V 31 -13171.266413 -11287.578128  25316.253941     -0.004086                    
P 32 -13121.920598  15271.797030  17395.197339   -578.992473                    
V 32 -21708.388689   2830.302118 -19262.892637     -0.049279                    
EOF
